start=new Date('2021-12-25T00:00:00.000Z').valueOf();
sats=[{"APOAPSIS":"509.818","MEAN_ANOMALY":"242.2905","ARG_OF_PERICENTER":"117.8370","MEAN_MOTION_DDOT":"0.0000000000000","CLASSIFICATION_TYPE":"U","PERIAPSIS":"505.998","NORAD_CAT_ID":"44238","OBJECT_NAME":"STARLINK-24","LAUNCH_DATE":"2019-05-24","SEMIMAJOR_AXIS":"6886.043","GP_ID":"192394384","FILE":"3250462","MEAN_ELEMENT_THEORY":"SGP4","DECAY_DATE":null,"CENTER_NAME":"EARTH","RCS_SIZE":"LARGE","TLE_LINE2":"2 44238  52.9909 197.7013 0002774 117.8370 242.2905 15.19316154141592","COUNTRY_CODE":"US","EPOCH":"2021-12-24T21:09:20.437056","TIME_SYSTEM":"UTC","OBJECT_ID":"2019-029D","ECCENTRICITY":"0.00027740","SITE":"AFETR","ELEMENT_SET_NO":"999","INCLINATION":"52.9909","REV_AT_EPOCH":"14159","EPHEMERIS_TYPE":"0","BSTAR":"0.00078272000000","MEAN_MOTION_DOT":"0.00016453","MEAN_MOTION":"15.19316154","OBJECT_TYPE":"PAYLOAD","PERIOD":"94.779","TLE_LINE1":"1 44238U 19029D   21358.88148654  .00016453  00000-0  78272-3 0  9993","REF_FRAME":"TEME","RA_OF_ASC_NODE":"197.7013"},{"RA_OF_ASC_NODE":"164.7876","REF_FRAME":"TEME","TLE_LINE1":"1 44249U 19029Q   21358.83830239  .00036313  00000-0  14131-2 0  9997","PERIOD":"94.384","OBJECT_TYPE":"PAYLOAD","MEAN_MOTION":"15.25687327","MEAN_MOTION_DOT":"0.00036313","EPHEMERIS_TYPE":"0","BSTAR":"0.00141310000000","INCLINATION":"52.9763","REV_AT_EPOCH":"14274","ELEMENT_SET_NO":"999","SITE":"AFETR","ECCENTRICITY":"0.00036120","OBJECT_ID":"2019-029Q","TIME_SYSTEM":"UTC","TLE_LINE2":"2 44249  52.9763 164.7876 0003612 318.0949  41.9770 15.25687327142744","EPOCH":"2021-12-24T20:07:09.326496","COUNTRY_CODE":"US","RCS_SIZE":"LARGE","CENTER_NAME":"EARTH","DECAY_DATE":null,"MEAN_ELEMENT_THEORY":"SGP4","FILE":"3250462","GP_ID":"192394634","SEMIMAJOR_AXIS":"6866.859","LAUNCH_DATE":"2019-05-24","OBJECT_NAME":"STARLINK-61","NORAD_CAT_ID":"44249","PERIAPSIS":"486.244","CLASSIFICATION_TYPE":"U","MEAN_MOTION_DDOT":"0.0000000000000","ARG_OF_PERICENTER":"318.0949","MEAN_ANOMALY":"41.9770","APOAPSIS":"491.205"},{"OBJECT_TYPE":"PAYLOAD","MEAN_MOTION":"15.21716930","REF_FRAME":"TEME","RA_OF_ASC_NODE":"196.7785","PERIOD":"94.630","TLE_LINE1":"1 44252U 19029T   21358.85069208  .00023258  00000-0  10251-2 0  9996","REV_AT_EPOCH":"14224","INCLINATION":"53.0030","ELEMENT_SET_NO":"999","EPHEMERIS_TYPE":"0","BSTAR":"0.00102510000000","ECCENTRICITY":"0.00035700","SITE":"AFETR","OBJECT_ID":"2019-029T","TIME_SYSTEM":"UTC","MEAN_MOTION_DOT":"0.00023258","DECAY_DATE":null,"FILE":"3250462","MEAN_ELEMENT_THEORY":"SGP4","TLE_LINE2":"2 44252  53.0030 196.7785 0003570 118.4110 241.7245 15.21716930142247","COUNTRY_CODE":"US","EPOCH":"2021-12-24T20:24:59.795712","RCS_SIZE":"LARGE","CENTER_NAME":"EARTH","MEAN_MOTION_DDOT":"0.0000000000000","CLASSIFICATION_TYPE":"U","ARG_OF_PERICENTER":"118.4110","APOAPSIS":"503.119","MEAN_ANOMALY":"241.7245","SEMIMAJOR_AXIS":"6878.799","GP_ID":"192395885","PERIAPSIS":"498.208","NORAD_CAT_ID":"44252","LAUNCH_DATE":"2019-05-24","OBJECT_NAME":"STARLINK-71"},{"MEAN_MOTION":"15.71720169","OBJECT_TYPE":"PAYLOAD","TLE_LINE1":"1 44257U 19029Y   21358.83967202  .00311063  00000-0  22762-2 0  9994","PERIOD":"91.619","RA_OF_ASC_NODE":"41.6930","REF_FRAME":"TEME","TIME_SYSTEM":"UTC","OBJECT_ID":"2019-029Y","SITE":"AFETR","ECCENTRICITY":"0.00064030","EPHEMERIS_TYPE":"0","BSTAR":"0.00227620000000","ELEMENT_SET_NO":"999","REV_AT_EPOCH":"14459","INCLINATION":"52.9905","MEAN_MOTION_DOT":"0.00311063","MEAN_ELEMENT_THEORY":"SGP4","FILE":"3250462","DECAY_DATE":null,"CENTER_NAME":"EARTH","RCS_SIZE":"LARGE","TLE_LINE2":"2 44257  52.9905  41.6930 0006403  31.0766 329.0629 15.71720169144596","COUNTRY_CODE":"US","EPOCH":"2021-12-24T20:09:07.662528","MEAN_ANOMALY":"329.0629","APOAPSIS":"358.293","ARG_OF_PERICENTER":"31.0766","CLASSIFICATION_TYPE":"U","MEAN_MOTION_DDOT":"0.0000000000000","OBJECT_NAME":"STARLINK-43","LAUNCH_DATE":"2019-05-24","PERIAPSIS":"349.672","NORAD_CAT_ID":"44257","GP_ID":"192396136","SEMIMAJOR_AXIS":"6732.118"},{"MEAN_MOTION_DDOT":"0.0000000000000","CLASSIFICATION_TYPE":"U","ARG_OF_PERICENTER":"155.5784","MEAN_ANOMALY":"204.5376","APOAPSIS":"448.744","SEMIMAJOR_AXIS":"6824.623","GP_ID":"192394884","NORAD_CAT_ID":"44282","PERIAPSIS":"444.232","LAUNCH_DATE":"2019-05-24","OBJECT_NAME":"STARLINK-80","DECAY_DATE":null,"FILE":"3250462","MEAN_ELEMENT_THEORY":"SGP4","EPOCH":"2021-12-24T15:52:26.425344","TLE_LINE2":"2 44282  53.0167 105.4298 0003306 155.5784 204.5376 15.39872509143048","COUNTRY_CODE":"US","RCS_SIZE":"LARGE","CENTER_NAME":"EARTH","REV_AT_EPOCH":"14304","INCLINATION":"53.0167","ELEMENT_SET_NO":"999","EPHEMERIS_TYPE":"0","BSTAR":"0.00152050000000","ECCENTRICITY":"0.00033060","SITE":"AFETR","OBJECT_ID":"2019-029AZ","TIME_SYSTEM":"UTC","MEAN_MOTION_DOT":"0.00061434","OBJECT_TYPE":"PAYLOAD","MEAN_MOTION":"15.39872509","REF_FRAME":"TEME","RA_OF_ASC_NODE":"105.4298","PERIOD":"93.514","TLE_LINE1":"1 44282U 19029AZ  21358.66141696  .00061434  00000-0  15205-2 0  9992"},{"SEMIMAJOR_AXIS":"6925.366","GP_ID":"192394424","NORAD_CAT_ID":"44713","PERIAPSIS":"545.600","OBJECT_NAME":"STARLINK-1007","LAUNCH_DATE":"2019-11-11","MEAN_MOTION_DDOT":"0.0000000000000","CLASSIFICATION_TYPE":"U","APOAPSIS":"548.862","MEAN_ANOMALY":"288.6490","ARG_OF_PERICENTER":"71.4755","EPOCH":"2021-12-24T22:16:10.606656","TLE_LINE2":"2 44713  53.0497 240.9361 0002355  71.4755 288.6490 15.06394291117273","COUNTRY_CODE":"US","CENTER_NAME":"EARTH","RCS_SIZE":"LARGE","DECAY_DATE":null,"FILE":"3250462","MEAN_ELEMENT_THEORY":"SGP4","MEAN_MOTION_DOT":"0.00000612","ELEMENT_SET_NO":"999","REV_AT_EPOCH":"11727","INCLINATION":"53.0497","EPHEMERIS_TYPE":"0","BSTAR":"0.00006004400000","OBJECT_ID":"2019-074A","TIME_SYSTEM":"UTC","SITE":"AFETR","ECCENTRICITY":"0.00023550","REF_FRAME":"TEME","RA_OF_ASC_NODE":"240.9361","PERIOD":"95.593","TLE_LINE1":"1 44713U 19074A   21358.92790054  .00000612  00000-0  60044-4 0  9992","OBJECT_TYPE":"PAYLOAD","MEAN_MOTION":"15.06394291"},{"PERIOD":"95.592","TLE_LINE1":"1 44714U 19074B   21358.90674091  .00001322  00000-0  10766-3 0  9997","REF_FRAME":"TEME","RA_OF_ASC_NODE":"241.0238","MEAN_MOTION":"15.06395575","OBJECT_TYPE":"PAYLOAD","MEAN_MOTION_DOT":"0.00001322","TIME_SYSTEM":"UTC","OBJECT_ID":"2019-074B","SITE":"AFETR","ECCENTRICITY":"0.00021850","ELEMENT_SET_NO":"999","INCLINATION":"53.0536","REV_AT_EPOCH":"11727","BSTAR":"0.00010766000000","EPHEMERIS_TYPE":"0","CENTER_NAME":"EARTH","RCS_SIZE":"LARGE","TLE_LINE2":"2 44714  53.0536 241.0238 0002185  71.3739 288.7487 15.06395575117278","COUNTRY_CODE":"US","EPOCH":"2021-12-24T21:45:42.414624","FILE":"3250462","MEAN_ELEMENT_THEORY":"SGP4","DECAY_DATE":null,"NORAD_CAT_ID":"44714","PERIAPSIS":"545.714","OBJECT_NAME":"STARLINK-1008","LAUNCH_DATE":"2019-11-11","SEMIMAJOR_AXIS":"6925.362","GP_ID":"192394674","MEAN_ANOMALY":"288.7487","APOAPSIS":"548.740","ARG_OF_PERICENTER":"71.3739","MEAN_MOTION_DDOT":"0.0000000000000","CLASSIFICATION_TYPE":"U"},{"ECCENTRICITY":"0.00022940","SITE":"AFETR","OBJECT_ID":"2019-074C","TIME_SYSTEM":"UTC","INCLINATION":"53.0532","REV_AT_EPOCH":"11725","ELEMENT_SET_NO":"999","EPHEMERIS_TYPE":"0","BSTAR":"0.00019933000000","MEAN_MOTION_DOT":"0.00002688","MEAN_MOTION":"15.06398859","OBJECT_TYPE":"PAYLOAD","PERIOD":"95.592","TLE_LINE1":"1 44715U 19074C   21358.82933652  .00002688  00000-0  19933-3 0  9991","REF_FRAME":"TEME","RA_OF_ASC_NODE":"241.3660","ARG_OF_PERICENTER":"76.5844","MEAN_ANOMALY":"283.5401","APOAPSIS":"548.806","MEAN_MOTION_DDOT":"0.0000000000000","CLASSIFICATION_TYPE":"U","PERIAPSIS":"545.628","NORAD_CAT_ID":"44715","LAUNCH_DATE":"2019-11-11","OBJECT_NAME":"STARLINK-1009","SEMIMAJOR_AXIS":"6925.352","GP_ID":"192395925","FILE":"3250462","MEAN_ELEMENT_THEORY":"SGP4","DECAY_DATE":null,"RCS_SIZE":"LARGE","CENTER_NAME":"EARTH","COUNTRY_CODE":"US","TLE_LINE2":"2 44715  53.0532 241.3660 0002294  76.5844 283.5401 15.06398859117257","EPOCH":"2021-12-24T19:54:14.675328"},{"PERIOD":"95.593","TLE_LINE1":"1 44716U 19074D   21358.91410256 -.00004627  00000-0 -29204-3 0  9991","REF_FRAME":"TEME","RA_OF_ASC_NODE":"240.9880","MEAN_MOTION":"15.06383455","OBJECT_TYPE":"PAYLOAD","MEAN_MOTION_DOT":"-0.00004627","OBJECT_ID":"2019-074D","TIME_SYSTEM":"UTC","ECCENTRICITY":"0.00020590","SITE":"AFETR","ELEMENT_SET_NO":"999","REV_AT_EPOCH":"11725","INCLINATION":"53.0545","EPHEMERIS_TYPE":"0","BSTAR":"-0.00029204000000","CENTER_NAME":"EARTH","RCS_SIZE":"LARGE","TLE_LINE2":"2 44716  53.0545 240.9880 0002059  76.5686 283.5533 15.06383455117256","COUNTRY_CODE":"US","EPOCH":"2021-12-24T21:56:18.461184","FILE":"3250462","MEAN_ELEMENT_THEORY":"SGP4","DECAY_DATE":null,"NORAD_CAT_ID":"44716","PERIAPSIS":"545.838","OBJECT_NAME":"STARLINK-1010","LAUNCH_DATE":"2019-11-11","SEMIMAJOR_AXIS":"6925.399","GP_ID":"192396176","MEAN_ANOMALY":"283.5533","APOAPSIS":"548.690","ARG_OF_PERICENTER":"76.5686","MEAN_MOTION_DDOT":"0.0000000000000","CLASSIFICATION_TYPE":"U"},{"EPHEMERIS_TYPE":"0","BSTAR":"0.00057925000000","ELEMENT_SET_NO":"999","INCLINATION":"53.0522","REV_AT_EPOCH":"11699","OBJECT_ID":"2019-074E","TIME_SYSTEM":"UTC","SITE":"AFETR","ECCENTRICITY":"0.00020340","MEAN_MOTION_DOT":"0.00008360","OBJECT_TYPE":"PAYLOAD","MEAN_MOTION":"15.06412287","RA_OF_ASC_NODE":"260.9846","REF_FRAME":"TEME","TLE_LINE1":"1 44717U 19074E   21358.91225743  .00008360  00000-0  57925-3 0  9994","PERIOD":"95.591","CLASSIFICATION_TYPE":"U","MEAN_MOTION_DDOT":"0.0000000000000","MEAN_ANOMALY":"297.0965","APOAPSIS":"548.585","ARG_OF_PERICENTER":"63.0232","GP_ID":"192394924","SEMIMAJOR_AXIS":"6925.311","OBJECT_NAME":"STARLINK-1011","LAUNCH_DATE":"2019-11-11","PERIAPSIS":"545.767","NORAD_CAT_ID":"44717","DECAY_DATE":null,"MEAN_ELEMENT_THEORY":"SGP4","FILE":"3250462","COUNTRY_CODE":"US","TLE_LINE2":"2 44717  53.0522 260.9846 0002034  63.0232 297.0965 15.06412287116992","EPOCH":"2021-12-24T21:53:39.041952","CENTER_NAME":"EARTH","RCS_SIZE":"LARGE"}];
